NORAD_CAT_ID,OBJECT_NAME,OBJECT_TYPE,EPOCH,MEAN_MOTION,ECCENTRICITY,INCLINATION,RA_OF_ASC_NODE,ARG_OF_PERICENTER,MEAN_ANOMALY,BSTAR,MEAN_MOTION_DOT,MEAN_MOTION_DDOT,TLE_LINE0,TLE_LINE1,TLE_LINE2,SEMIMAJOR_AXIS,PERIOD,APOGEE,PERIGEE,DECAYED
55416.0,STARLINK-5624,PAYLOAD,2024-05-15 13:35:00,14.98370719,0.0003114,69.9993,316.3846,266.7406,93.3396,0.0012037,0.00014314,0.0,0 STARLINK-5624,1 55416U 23014AB  24136.56597980  .00014314  00000-0  12037-2 0  9994,2 55416  69.9993 316.3846 0003114 266.7406  93.3396 14.98370719 72235,6950.067,96.104,574.096,569.768,0.0
55416.0,STARLINK-5624,PAYLOAD,2024-05-15 19:59:32,14.98379052,0.0003237,70.0014,315.7134,269.2857,90.7931,0.0013167,0.00015673,0.0,0 STARLINK-5624,1 55416U 23014AB  24136.83301240  .00015673  00000-0  13167-2 0  9990,2 55416  70.0014 315.7134 0003237 269.2857  90.7931 14.98379052 71334,6950.041,96.104,574.156,569.656,0.0
55416.0,STARLINK-5624,PAYLOAD,2024-05-15 21:35:40,14.98381917,0.0003242,70.0014,315.5451,269.326,90.7528,0.0013728,0.00016348,0.0,0 STARLINK-5624,1 55416U 23014AB  24136.89977010  .00016348  00000-0  13728-2 0  9993,2 55416  70.0014 315.5451 0003242 269.3260  90.7528 14.98381917 72289,6950.032,96.104,574.151,569.644,0.0
55416.0,STARLINK-5624,PAYLOAD,2024-05-16 12:00:51,14.98371679,0.0002555,70.0012,314.0285,273.3787,86.708,0.00082027,9.718e-05,0.0,0 STARLINK-5624,1 55416U 23014AB  24137.50060173  .00009718  00000-0  82027-3 0  9997,2 55416  70.0012 314.0285 0002555 273.3787  86.7080 14.98371679 71439,6950.064,96.104,573.705,570.153,0.0
55416.0,STARLINK-5624,PAYLOAD,2024-05-16 18:25:23,14.98363413,0.0003097,70.0013,313.356,273.8048,86.2757,0.00053991,6.361e-05,0.0,0 STARLINK-5624,1 55416U 23014AB  24137.76763728  .00006361  00000-0  53991-3 0  9990,2 55416  70.0013 313.3560 0003097 273.8048  86.2757 14.98363413 71472,6950.09,96.105,574.107,569.802,0.0
55416.0,STARLINK-5624,PAYLOAD,2024-05-17 12:02:52,14.98341864,0.0003796,70.0012,311.5044,277.849,82.2238,0.0006699,7.912e-05,0.0,0 STARLINK-5624,1 55416U 23014AB  24138.50199940  .00007912  00000-0  66990-3 0  9998,2 55416  70.0012 311.5044 0003796 277.8490  82.2238 14.98341864 71587,6950.156,96.106,574.659,569.383,0.0
55416.0,STARLINK-5624,PAYLOAD,2024-05-17 21:39:41,14.98335663,0.0003351,70.0011,310.4921,279.8396,80.2385,0.00020386,2.341e-05,0.0,0 STARLINK-5624,1 55416U 23014AB  24138.90255977  .00002341  00000-0  20386-3 0  9995,2 55416  70.0011 310.4921 0003351 279.8396  80.2385 14.98335663 72584,6950.175,96.107,574.369,569.711,0.0
55416.0,STARLINK-5624,PAYLOAD,2024-05-18 12:04:55,14.98321127,0.0002769,70.0016,308.9794,258.5922,101.4926,0.00068096,8.04e-05,0.0,0 STARLINK-5624,1 55416U 23014AB  24139.50341844  .00008040  00000-0  68096-3 0  9993,2 55416  70.0016 308.9794 0002769 258.5922 101.4926 14.98321127 71733,6950.22,96.108,574.01,570.161,0.0
55416.0,STARLINK-5624,PAYLOAD,2024-05-18 13:41:03,14.98320815,0.0002595,70.0012,308.811,253.9997,106.0877,0.00070068,8.275e-05,0.0,0 STARLINK-5624,1 55416U 23014AB  24139.57017933  .00008275  00000-0  70068-3 0  9991,2 55416  70.0012 308.8110 0002595 253.9997 106.0877 14.98320815 72682,6950.221,96.108,573.89,570.283,0.0
55416.0,STARLINK-5624,PAYLOAD,2024-05-18 21:41:43,14.98331883,0.0003392,70.0008,307.9689,272.6098,87.4673,0.00039672,4.644e-05,0.0,0 STARLINK-5624,1 55416U 23014AB  24139.90397700  .00004644  00000-0  39672-3 0  9993,2 55416  70.0008 307.9689 0003392 272.6098  87.4673 14.98331883 72733,6950.187,96.107,574.41,569.695,0.0
55416.0,STARLINK-5624,PAYLOAD,2024-05-19 13:43:04,14.98337126,0.0003034,70.0006,306.2865,268.8047,91.2765,0.00046255,5.431e-05,0.0,0 STARLINK-5624,1 55416U 23014AB  24140.57157467  .00005431  00000-0  46255-3 0  9992,2 55416  70.0006 306.2865 0003034 268.8047  91.2765 14.98337126 72835,6950.171,96.107,574.145,569.927,0.0
55416.0,STARLINK-5624,PAYLOAD,2024-05-20 12:08:56,14.98350118,0.0002874,70.0021,303.9292,257.4646,102.6192,0.00021803,2.511e-05,0.0,0 STARLINK-5624,1 55416U 23014AB  24141.50620459  .00002511  00000-0  21803-3 0  9990,2 55416  70.0021 303.9292 0002874 257.4646 102.6192 14.98350118 72039,6950.131,96.106,573.993,569.998,0.0
55416.0,STARLINK-5624,PAYLOAD,2024-05-20 13:45:04,14.98346144,0.0002847,70.0013,303.7616,263.009,97.0745,0.00019129,2.191e-05,0.0,0 STARLINK-5624,1 55416U 23014AB  24141.57296602  .00002191  00000-0  19129-3 0  9998,2 55416  70.0013 303.7616 0002847 263.0090  97.0745 14.98346144 72983,6950.143,96.106,573.987,570.029,0.0
55416.0,STARLINK-5624,PAYLOAD,2024-05-21 12:10:56,14.98336758,0.0003125,70.0011,301.4055,269.068,91.0121,-0.00010706,-1.37e-05,0.0,0 STARLINK-5624,1 55416U 23014AB  24142.50760352 -.00001370  00000-0 -10706-3 0  9992,2 55416  70.0011 301.4055 0003125 269.0680  91.0121 14.98336758 72188,6950.172,96.107,574.209,569.865,0.0
55416.0,STARLINK-5624,PAYLOAD,2024-05-21 13:47:05,14.9833459,0.0003277,70.0009,301.2372,271.836,88.2424,-0.00013831,-1.743e-05,0.0,0 STARLINK-5624,1 55416U 23014AB  24142.57436456 -.00001743  00000-0 -13831-3 0  9990,2 55416  70.0009 301.2372 0003277 271.8360  88.2424 14.98334590 73131,6950.179,96.107,574.321,569.766,0.0
55416.0,STARLINK-5624,PAYLOAD,2024-05-21 20:11:37,14.98347251,0.0003031,69.9994,300.5652,264.8076,95.2737,-0.00021969,-2.714e-05,0.0,0 STARLINK-5624,1 55416U 23014AB  24142.84140157 -.00002714  00000-0 -21969-3 0  9990,2 55416  69.9994 300.5652 0003031 264.8076  95.2737 14.98347251 73175,6950.14,96.106,574.111,569.898,0.0
55416.0,STARLINK-5624,PAYLOAD,2024-05-22 12:12:57,14.98334254,0.0002708,70.0006,298.8826,258.9275,101.1579,1.2804e-05,6e-07,0.0,0 STARLINK-5624,1 55416U 23014AB  24143.50900456  .00000060  00000-0  12804-4 0  9999,2 55416  70.0006 298.8826 0002708 258.9275 101.1579 14.98334254 72336,6950.18,96.107,573.927,570.163,0.0
55416.0,STARLINK-5624,PAYLOAD,2024-05-22 20:13:38,14.98336641,0.0003035,70.0001,298.0391,268.2641,91.817,4.5556e-05,4.51e-06,0.0,0 STARLINK-5624,1 55416U 23014AB  24143.84280136  .00000451  00000-0  45556-4 0  9996,2 55416  70.0001 298.0391 0003035 268.2641  91.8170 14.98336641 73329,6950.172,96.107,574.147,569.928,0.0
55416.0,STARLINK-5624,PAYLOAD,2024-05-23 12:14:58,14.98330863,0.0002898,70.0001,296.3556,266.8063,93.2765,0.00014116,1.592e-05,0.0,0 STARLINK-5624,1 55416U 23014AB  24144.51040200  .00001592  00000-0  14116-3 0  9991,2 55416  70.0001 296.3556 0002898 266.8063  93.2765 14.98330863 72483,6950.19,96.107,574.069,570.041,0.0
55416.0,STARLINK-5624,PAYLOAD,2024-05-23 13:51:06,14.98330906,0.0002906,70.0001,296.1873,266.7936,93.2891,0.00013968,1.574e-05,0.0,0 STARLINK-5624,1 55416U 23014AB  24144.57716209  .00001574  00000-0  13968-3 0  9990,2 55416  70.0001 296.1873 0002906 266.7936  93.2891 14.98330906 73435,6950.19,96.107,574.075,570.035,0.0
55416.0,STARLINK-5624,PAYLOAD,2024-05-23 20:15:38,14.98334157,0.0002903,70.0001,295.5143,266.9478,93.1349,0.00017064,1.944e-05,0.0,0 STARLINK-5624,1 55416U 23014AB  24144.84419986  .00001944  00000-0  17064-3 0  9994,2 55416  70.0001 295.5143 0002903 266.9478  93.1349 14.98334157 73471,6950.18,96.107,574.063,570.027,0.0
55416.0,STARLINK-5624,PAYLOAD,2024-05-24 12:17:00,14.98327503,0.0002722,70.0008,293.8308,259.685,100.4002,7.4473e-05,7.96e-06,0.0,0 STARLINK-5624,1 55416U 23014AB  24145.51180556  .00000796  00000-0  74473-4 0  9999,2 55416  70.0008 293.8308 0002722 259.6850 100.4002 14.98327503 72636,6950.201,96.107,573.957,570.174,0.0
55416.0,STARLINK-5624,PAYLOAD,2024-05-24 13:53:08,14.98328674,0.0002755,70.0004,293.6624,265.6743,94.4101,2.1152e-05,1.59e-06,0.0,0 STARLINK-5624,1 55416U 23014AB  24145.57856613  .00000159  00000-0  21152-4 0  9998,2 55416  70.0004 293.6624 0002755 265.6743  94.4101 14.98328674 73582,6950.197,96.107,573.977,570.147,0.0
55416.0,STARLINK-5624,PAYLOAD,2024-05-24 20:17:39,14.98333814,0.0002935,69.9998,292.9887,269.5428,90.5394,6.3553e-05,6.65e-06,0.0,0 STARLINK-5624,1 55416U 23014AB  24145.84560171  .00000665  00000-0  63553-4 0  9992,2 55416  69.9998 292.9887 0002935 269.5428  90.5394 14.98333814 73625,6950.181,96.107,574.086,570.006,0.0
55416.0,STARLINK-5624,PAYLOAD,2024-05-25 12:19:00,14.98330746,0.0002916,70.0001,291.307,259.0149,101.0682,4.2283e-05,4.12e-06,0.0,0 STARLINK-5624,1 55416U 23014AB  24146.51320315  .00000412  00000-0  42283-4 0  9998,2 55416  70.0001 291.3070 0002916 259.0149 101.0682 14.98330746 72788,6950.191,96.107,574.082,570.029,0.0
55416.0,STARLINK-5624,PAYLOAD,2024-05-25 13:55:08,14.98328854,0.0002827,70.0,291.1371,259.1985,100.8856,5.0844e-05,5.14e-06,0.0,0 STARLINK-5624,1 55416U 23014AB  24146.57996383  .00000514  00000-0  50844-4 0  9993,2 55416  70.0000 291.1371 0002827 259.1985 100.8856 14.98328854 73732,6950.196,96.107,574.026,570.097,0.0
55416.0,STARLINK-5624,PAYLOAD,2024-05-26 12:21:01,14.98327573,0.0003356,69.9994,288.7804,275.5342,84.5434,7.5598e-05,8.09e-06,0.0,0 STARLINK-5624,1 55416U 23014AB  24147.51460458  .00000809  00000-0  75598-4 0  9997,2 55416  69.9994 288.7804 0003356 275.5342  84.5434 14.98327573 72939,6950.2,96.107,574.398,569.733,0.0
55416.0,STARLINK-5624,PAYLOAD,2024-05-26 13:57:09,14.98326827,0.0003343,69.9995,288.6123,274.895,85.1827,6.8968e-05,7.3e-06,0.0,0 STARLINK-5624,1 55416U 23014AB  24147.58136505  .00000730  00000-0  68968-4 0  9993,2 55416  69.9995 288.6123 0003343 274.8950  85.1827 14.98326827 73885,6950.203,96.107,574.391,569.744,0.0
55416.0,STARLINK-5624,PAYLOAD,2024-05-26 20:21:42,14.98324942,0.000315,69.9996,287.9387,270.9963,89.0835,2.616e-05,2.19e-06,0.0,0 STARLINK-5624,1 55416U 23014AB  24147.84840785  .00000219  00000-0  26160-4 0  9994,2 55416  69.9996 287.9387 0003150 270.9963  89.0835 14.98324942 73920,6950.209,96.107,574.263,569.884,0.0
55416.0,STARLINK-5624,PAYLOAD,2024-05-27 12:23:02,14.9833262,0.0003251,69.9993,286.2546,270.3058,89.7728,4.7586e-05,4.75e-06,0.0,0 STARLINK-5624,1 55416U 23014AB  24148.51600211  .00000475  00000-0  47586-4 0  9996,2 55416  69.9993 286.2546 0003251 270.3058  89.7728 14.98332620 73084,6950.185,96.107,574.309,569.79,0.0
